#aV2022  7  6  0  0  0.00000000     288 DD+AD WGS84 FIT  NGA
## 2217 259200.00000000   300.00000000 59766 0.0000000000000
+   32     1  2  3  4  5  6  7  8  9 10 11 12 13 14 15 16 17
+         18 19 20 21 22 23 24 25 26 27 28 29 30 31 32  0  0
+          0  0  0  0  0  0  0  0  0  0  0  0  0  0  0  0  0
+          0  0  0  0  0  0  0  0  0  0  0  0  0  0  0  0  0
+          0  0  0  0  0  0  0  0  0  0  0  0  0  0  0  0  0
++         2  2  2  2  2  2  2  2  2  2  2  2  2  2  2  2  2
++         2  2  2  2  2  2  2  2  2  2  2  2  2  2  2  0  0
++         0  0  0  0  0  0  0  0  0  0  0  0  0  0  0  0  0
++         0  0  0  0  0  0  0  0  0  0  0  0  0  0  0  0  0
++         0  0  0  0  0  0  0  0  0  0  0  0  0  0  0  0  0
%c cc cc ccc ccc cccc cccc cccc cccc ccccc ccccc ccccc ccccc
%c cc cc ccc ccc cccc cccc cccc cccc ccccc ccccc ccccc ccccc
%f  0.0000000  0.000000000  0.00000000000  0.000000000000000
%f  0.0000000  0.000000000  0.00000000000  0.000000000000000
%i    0    0    0    0      0      0      0      0         0
%i    0    0    0    0      0      0      0      0         0
/*      NGA, ST. LOUIS,MO.                                  
/*   EPHEMERIS COMPUTED FROM 2 DAYS OF DATA                 
/*   EPOCHA v7 SMOOTHER                                     
/*   G2139 IERS2010 SATIGS SATAPC                           
*  2022  7  6 21 25  0.00000000
P  1  -9933.896559  19929.230629 -14511.889926    326.585620                    
V  1 -15162.631291   9810.804904  24702.558425     -0.075634                    
P  2  21182.377142 -15071.971413  -5176.503493   -651.824250                    
V  2  -3607.721036   6914.932594 -30858.853158      0.005483                    
P  3  -1337.696304  15326.740542 -21779.093514   -300.049142                    
V  3 -25591.578462  -9567.043512  -5077.113489     -0.105841                    
P  4  -2141.204823  25364.543096  -7408.421641   -148.973929                    
V  4  -3823.244018  -9050.019613 -29926.740602      0.044176                    
P  5  16264.115289  -8528.910296  19069.648836    -88.176723                    
V  5  22808.770452   9111.880087 -15098.853644     -0.013951                    
P  6  20171.524550  -1552.800788 -17192.139991    373.913535                    
V  6 -16338.112228  14566.774929 -20339.286808      0.161920                    
P  7   6147.669079  14786.129153  21542.253390    320.142950                    
V  7 -21166.146921  15964.663730  -5507.782444     -0.011551                    
P  8  -6494.920822  21060.448161  14521.727185    -75.137787                    
V  8  -5535.463200 -17953.997741  23839.234482     -0.016415                    
P  9   6495.099855  25579.581779   2763.957052   -321.623734                    
V  9  -2358.776115   4069.125514 -31379.481822      0.037061                    
P 10 -23734.372811 -11768.393682   3649.794975   -482.319650                    
V 10   4863.028504   -370.916835  31419.031049     -0.139761                    
P 11  23170.539635 -11409.325404  -6144.304455    -11.427051                    
V 11  -4778.802414   6713.212350 -30532.316671      0.012277                    
P 12   5597.684985 -14112.645797 -22063.316308   -242.365795                    
V 12  24754.710770  11618.032923  -1060.421863     -0.058997                    
P 13  12989.696744 -12554.487493  19252.607950    343.366792                    
V 13   1811.889804  24786.645764  14995.428372      0.071262                    
P 14  22585.082692  13302.248301   4616.462446   -112.001537                    
V 14  -6532.334624    381.313382  30777.113353      0.001246                    
P 15   4390.929516 -21801.801409  13866.114600    -47.505942                    
V 15   8242.963437  16886.260756  23552.347114      0.030132                    
P 16 -20914.720540   2108.254558  16231.183217   -513.770745                    
V 16 -18090.696832 -10623.313982 -21124.615486     -0.023297                    
P 17  12722.121302  15847.092980 -16640.031825    633.768640                    
V 17    417.007031  21998.759870  20786.988995      0.045223                    
P 18  -5253.908958 -14551.118980  21564.762684    121.101231                    
V 18  21967.603868 -16365.524222  -5804.561414     -0.112692                    
P 19  14724.142062   6883.020108 -21307.955615    180.263718                    
V 19    768.878993  26358.135110   8932.133931      0.050269                    
P 20  24176.748685  -2551.606140  10422.116922    505.383279                    
V 20  12395.184575   5827.566078 -27562.599652     -0.031585                    
P 21 -16539.363931  19719.712781  -4178.790351    161.198459                    
V 21  -6881.043103   1754.890814  31599.939671     -0.001056                    
P 22 -15070.414057  -3713.232147 -21156.990527    287.935778                    
V 22  -1528.683598 -27787.794694   5680.205738      0.064195                    
P 23 -17094.400694 -15610.712808  13110.029933    -31.714533                    
V 23  16306.016377   3705.025555  25541.720094     -0.017947                    
P 24  11737.878970 -21452.777414 -10138.366368    203.586167                    
V 24  11564.524842  -6158.423414  27653.750548     -0.094876                    
P 25  -9580.563705 -17305.017540 -18138.601145    346.076415                    
V 25  21427.533643   6584.105269 -17616.382464      0.045143                    
P 26 -25587.913071  -2773.460126   7104.175586    216.709407                    
V 26  -7689.349550  -5759.567619 -29270.538578      0.022179                    
P 27 -13181.055029   8714.309920  21064.821179    219.923036                    
V 27  -5070.442955 -26834.914358   8227.982413      0.013923                    
P 28  24396.945406   9197.689307  -3840.997853    331.551151                    
V 28   3707.097706   4983.154049  31569.313066      0.049945                    
P 29  -4365.847570 -25925.585365   3424.350758   -531.081094                    
V 29   1878.056886  -4576.643410 -31844.209888     -0.036539                    
P 30  15356.865205   7250.482920  20564.361555   -533.365576                    
V 30 -19913.931768  16660.460903   8782.524371     -0.009268                    
P 31 -21870.097975   3227.273783 -15185.737141   -184.712741                    
V 31  13866.478747 -12940.954689 -22463.133918     -0.015048                    
P 32 -14834.380312 -12761.647909 -17895.742530   -169.511524                    
V 32  -2167.970480 -22912.366821  17800.841417     -0.098042                    
EOF
